SL-14 R/B               
1 18749U 88001B   21356.59907590  .00000220  00000+0  24013-4 0  9994
2 18749  82.5136 199.2416 0017236 275.9540 136.4953 14.83296130813863
COSMOS 1933             
1 18958U 88020A   21356.37732455  .00001209  00000+0  85098-4 0  9997
2 18958  82.5296 311.5266 0012883  72.1057 288.1573 15.04114919818188
SL-3 R/B                
1 19046U 88032B   21356.54498513  .00001173  00000+0  89779-4 0  9992
2 19046  97.3898 358.4530 0038788 121.0908 239.4134 15.03148938820030
SL-16 R/B               
1 19120U 88039B   21356.54403271  .00000034  00000+0  39247-4 0  9999
2 19120  71.0158  79.8013 0022025 185.3771 174.7121 14.19230886740127
COSMOS 1953             
1 19210U 88050A   21356.37462904  .00001119  00000+0  73556-4 0  9997
2 19210  82.5168 232.9178 0013836  37.3437 322.8750 15.06545179804894
SL-8 R/B                
1 19257U 88053B   21356.57126303  .00000139  00000+0  55086-4 0  9992
2 19257  74.0496  63.8888 0021771 266.4621 195.8726 14.37543525755488
COSMOS 1975             
1 19573U 88093A   21356.55326388  .00002185  00000+0  14988-3 0  9998
2 19573  82.5191 188.2512 0015302  76.7740 283.5193 15.05447791786669
SL-14 R/B               
1 19574U 88093B   21356.57478571  .00000237  00000+0  25772-4 0  9993
2 19574  82.5323  42.8044 0023111  79.0082  33.1404 14.83408211772864
SL-16 R/B               
1 19650U 88102B   21356.55220083 -.00000100  00000+0 -26608-4 0  9990
2 19650  70.9984 146.8427 0015030 201.1601 158.8902 14.15812929709160
INTERCOSMOS 24          
1 20261U 89080A   21356.56423976  .00000453  00000+0  13609-3 0  9998
2 20261  82.6026  22.2917 1201249 251.4393  95.2730 12.56239495473440
SL-14 R/B               
1 20262U 89080C   21356.47966238  .00000149  00000+0  35170-4 0  9992
2 20262  82.5949  79.6821 1237322  96.1373 278.1765 12.49003218468029
DELTA 2 R/B(1)          
1 20303U 89085B   21356.53830876  .00009487  00000+0  27773-3 0  9991
2 20303  35.6398 128.5772 0087967  64.6789 296.3021 15.30722827753299
DELTA 1 R/B             
1 20323U 89089B   21356.44317616  .00000178  00000+0  55482-4 0  9996
2 20323  97.1087  61.3335 0070218 292.0298  67.3451 14.48441627672917
ARIANE 40 R/B           
1 20443U 90005H   21356.42758365  .00000118  00000+0  53319-4 0  9998
2 20443  98.5078  61.1482 0011297 131.2749 228.9413 14.38161732671594
DELTA 2 R/B(1)          
1 20453U 90008B   21356.13036821  .00003114  00000+0  16816-3 0  9995
2 20453  35.6243 233.4032 0274993 244.2637 112.9453 14.87437120693479
COSMOS 2058             
1 20465U 90010A   21356.53635723  .00001275  00000+0  10442-3 0  9996
2 20465  82.4895 101.0131 0016434 133.0215 227.2388 14.98395112711133
SL-14 R/B               
1 20466U 90010B   21356.46419609  .00000254  00000+0  29345-4 0  9991
2 20466  82.5037 269.2052 0019609 324.4206  35.5699 14.81458445700601
SL-14 R/B               
1 20511U 90018B   21356.61206005  .00000200  00000+0  23172-4 0  9994
2 20511  82.5231 217.9279 0018918 102.6096 313.4787 14.80112071694939
HST                     
1 20580U 90037B   21356.46528184  .00001696  00000+0  91144-4 0  9993
2 20580  28.4700 260.8630 0002461 288.8834 233.9655 15.09894697539432
SL-16 R/B               
1 20625U 90046B   21356.52172257 -.00000258  00000+0 -10942-3 0  9997
2 20625  70.9994 287.3096 0012256 128.3601 231.8625 14.14675570630834
COSMOS 2084             
1 20663U 90055A   21356.57420763  .00000392  00000+0  52964-4 0  9990
2 20663  62.7931 120.9166 0097450  30.8042 329.8720 14.92409887705896
SL-6 R/B(2)             
1 20666U 90055D   21356.53424397  .00000629  00000+0  70878-4 0  9993
2 20666  62.7851  36.0560 0118708  54.8446 306.3700 14.92662907707848
SL-8 R/B                
1 20775U 90078B   21356.54542429  .00005022  00000+0  24356-3 0  9998
2 20775  82.9263 129.7158 0561753 278.2983  75.4914 14.36948192585096
SL-8 R/B                
1 21088U 91006B   21356.45098487  .00000038  00000+0  23277-4 0  9992
2 21088  82.9429 234.0538 0023254  25.6722 147.0774 13.77191553552329
OKEAN-3                 
1 21397U 91039A   21356.54800114  .00000946  00000+0  87651-4 0  9993
2 21397  82.5214  10.8475 0019188 116.2462 244.0733 14.93256138634772
COSMOS 2151             
1 21422U 91042A   21356.59910250  .00000833  00000+0  78831-4 0  9999
2 21422  82.5006 116.2441 0014158 179.1088 181.0159 14.92365711633305
SL-14 R/B               
1 21423U 91042B   21356.57242089  .00000199  00000+0  23281-4 0  9990
2 21423  82.4941 219.9215 0016215 245.3415 114.6109 14.79860864625468
ERS-1                   
1 21574U 91050A   21356.52837346  .00000250  00000+0  97374-4 0  9999
2 21574  98.6746 318.4442 0033989  83.4670 277.0384 14.37840114594593
ARIANE 40 R/B           
1 21610U 91050F   21356.48176856  .00000141  00000+0  57458-4 0  9995
2 21610  98.4043  64.2574 0003935  53.1443 317.3494 14.40986109597349
INTERCOSMOS 25          
1 21819U 91086A   21356.52561193  .00000787  00000+0  15527-3 0  9998
2 21819  82.5836 154.8495 1514849 173.1871 189.2662 12.05446125310919
SL-8 R/B                
1 21876U 92008B   21356.44663640  .00000093  00000+0  79956-4 0  9994
2 21876  82.9264 331.3919 0036109 109.2535   0.9987 13.75692059497909
SL-8 R/B                
1 21938U 92020B   21356.60324056  .00000116  00000+0  10521-3 0  9998
2 21938  82.9302 215.8842 0028019 270.6307 145.3217 13.75290057489704
COSMOS 2219             
1 22219U 92076A   21356.41668021 -.00000265  00000+0 -11539-3 0  9991
2 22219  71.0595 352.5579 0016933  22.2784 337.9070 14.13668708500950
SL-16 R/B               
1 22220U 92076B   21356.58985178  .00000198  00000+0  12354-3 0  9995
2 22220  70.9986 187.1843 0015109 277.8913 137.3570 14.16479461504002
COSMOS 2221             
1 22236U 92080A   21356.57894403  .00000878  00000+0  92494-4 0  9995
2 22236  82.5080 300.9156 0015097 287.5359  72.4209 14.88175312551527
SL-16 R/B               
1 22285U 92093B   21356.44767564  .00000104  00000+0  78166-4 0  9998
2 22285  71.0222 352.3625 0002944 165.7719 194.3488 14.15073505495529
COSMOS 2228             
1 22286U 92094A   21356.44908078  .00000779  00000+0  81023-4 0  9991
2 22286  82.5208 257.9359 0022234  46.7302 313.5766 14.88398228546696
SL-16 R/B               
1 22566U 93016B   21356.57768474 -.00000125  00000+0 -39879-4 0  9994
2 22566  71.0061 204.6803 0009190 156.6309 203.5233 14.14982798484579
COSMOS 2242             
1 22626U 93024A   21356.54929885  .00000832  00000+0  87121-4 0  9998
2 22626  82.5220 286.2008 0020061  47.2114 313.0786 14.88243139551094
SL-16 R/B               
1 22803U 93059B   21356.49030408 -.00000187  00000+0 -69053-4 0  9990
2 22803  70.9908  13.7677 0016026  26.1175 334.0754 14.16848046461636
ARIANE 40 R/B           
1 22830U 93061H   21356.40498497  .00000074  00000+0  44549-4 0  9996
2 22830  98.6900  54.3678 0011709 136.7121 223.4984 14.31503884473936
COSMOS 2278             
1 23087U 94023A   21356.59499694 -.00000070  00000+0 -11861-4 0  9999
2 23087  71.0537 151.4632 0010498 229.5454 130.4754 14.13849304427374
SL-16 R/B               
1 23088U 94023B   21356.55043773 -.00000160  00000+0 -58370-4 0  9995
2 23088  71.0015  60.1960 0001292 162.2715 197.8453 14.14699813428532
SL-16 R/B               
1 23343U 94074B   21356.42421235  .00000201  00000+0  35767-4 0  9993
2 23343  97.9211  47.9225 0007314 157.8050 212.8328 14.76927432460030
SL-16 R/B               
1 23405U 94077B   21356.42099902 -.00000197  00000+0 -76779-4 0  9991
2 23405  70.9836 347.7526 0004304 306.1916  53.8808 14.15249520398577
ERS-2                   
1 23560U 95021A   21356.60702961  .00005315  00000+0  21865-3 0  9999
2 23560  98.5230 232.7124 0004694  85.5390 274.6380 15.24674572426352
ARIANE 40+ R/B          
1 23561U 95021B   21356.62625559  .00000158  00000+0  67098-4 0  9998
2 23561  98.6502  48.0100 0007737  57.9265  57.3598 14.38070148398070
SL-16 R/B               
1 23705U 95058B   21356.55777439 -.00000221  00000+0 -89259-4 0  9991
2 23705  71.0209 168.4535 0014701 298.6850  61.2794 14.15160432350229
SL-16 R/B               
1 24298U 96051B   21356.61323626 -.00000043  00000+0  31305-5 0  9996
2 24298  70.8190 183.9870 0019109 251.7995 108.1045 14.12403246304469
ORBVIEW 2 (SEASTAR)     
1 24883U 97037A   21356.58996352  .00000124  00000+0  60984-4 0  9992
2 24883  98.6615 114.6341 0001316 270.5987  89.5046 14.33658358287961
SL-16 R/B               
1 25400U 98043G   21356.54650531  .00000027  00000+0  30140-4 0  9991
2 25400  98.6582 289.7534 0010222 158.1857 201.9759 14.25490593219817
SL-16 R/B               
1 25407U 98045B   21356.60677194  .00000248  00000+0  15011-3 0  9995
2 25407  71.0100 175.0489 0008871 222.6834 137.3601 14.15847793209375
ISS (ZARYA)             
1 25544U 98067A   21356.70730882  .00006423  00000+0  12443-3 0  9993
2 25544  51.6431 130.5342 0004540 343.5826 107.2903 15.49048054317816
CZ-4B R/B               
1 25732U 99025C   21356.60046406  .00000075  00000+0  58347-4 0  9999
2 25732  98.8799  33.2630 0038277  73.2930  79.6759 14.17707599170190
OKEAN-O                 
1 25860U 99039A   21356.55526028  .00000307  00000+0  51378-4 0  9998
2 25860  98.1629  29.6761 0000793  99.7078 260.4221 14.76797860207144
SL-16 R/B               
1 25861U 99039B   21356.62010234  .00000246  00000+0  40966-4 0  9997
2 25861  98.1944  15.5484 0015670 176.4970 294.3467 14.78694228209365
DELTA 2 R/B             
1 25876U 99041E   21356.53688489  .00000239  00000+0  81392-4 0  9999
2 25876  51.7646 286.5363 0531084 157.4054 205.1224 14.04694787146354
HELIOS 1B               
1 25977U 99064A   21356.52449886  .00000324  00000+0  47446-4 0  9998
2 25977  98.3202 178.5717 0001765  46.6773 313.4586 14.82621392457064
TERRA                   
1 25994U 99068A   21356.51641417  .00000217  00000+0  58024-4 0  9999
2 25994  98.1587  67.3148 0001355  99.4325 319.4822 14.57137118170739
